{
  "type": "FeatureCollection",
  "features": [
    {
      "type": "Feature",
      "properties": {
        "norad_id": 55973,
        "name": "TIANMU-1 03",
        "group": "weather",
        "lat": -34.52430949525108,
        "lon": 144.79793722296762,
        "alt_km": 452.68322931868715,
        "timestamp": "2025-12-03T04:52:29.284228+00:00",
        "meta_object_name": "TIANMU-1 03",
        "meta_object_id": "2023-039A",
        "meta_epoch": "2025-12-02T19:40:19.500960",
        "meta_mean_motion": 15.40471434,
        "meta_eccentricity": 0.0004547,
        "meta_inclination": 97.5101,
        "meta_ra_of_asc_node": 139.1973,
        "meta_arg_of_pericenter": 89.5867,
        "meta_mean_anomaly": 270.59,
        "meta_ephemeris_type": 0,
        "meta_classification_type": "U",
        "meta_norad_cat_id": 55973,
        "meta_element_set_no": 999,
        "meta_rev_at_epoch": 15053,
        "meta_bstar": 0.00046947,
        "meta_mean_motion_dot": 0.00018966,
        "meta_mean_motion_ddot": 0,
        "tle_line1": "1 55973U 23039A   25336.81967015  .00018966  00000+0  46947-3 0  9994",
        "tle_line2": "2 55973  97.5101 139.1973 0004547  89.5867 270.5900 15.40471434150530"
      },
      "geometry": {
        "type": "Point",
        "coordinates": [
          144.79793722296762,
          -34.52430949525108
        ]
      }
    },
    {
      "type": "Feature",
      "properties": {
        "norad_id": 55974,
        "name": "TIANMU-1 04",
        "group": "weather",
        "lat": 66.59853975000685,
        "lon": 121.05432312757014,
        "alt_km": 433.8072502409959,
        "timestamp": "2025-12-03T04:52:29.284239+00:00",
        "meta_object_name": "TIANMU-1 04",
        "meta_object_id": "2023-039B",
        "meta_epoch": "2025-12-02T19:13:48.398304",
        "meta_mean_motion": 15.4080049,
        "meta_eccentricity": 0.0005235,
        "meta_inclination": 97.5033,
        "meta_ra_of_asc_node": 138.3736,
        "meta_arg_of_pericenter": 85.7587,
        "meta_mean_anomaly": 274.4257,
        "meta_ephemeris_type": 0,
        "meta_classification_type": "U",
        "meta_norad_cat_id": 55974,
        "meta_element_set_no": 999,
        "meta_rev_at_epoch": 15053,
        "meta_bstar": 0.00049135,
        "meta_mean_motion_dot": 0.00020076,
        "meta_mean_motion_ddot": 0,
        "tle_line1": "1 55974U 23039B   25336.80125461  .00020076  00000+0  49135-3 0  9992",
        "tle_line2": "2 55974  97.5033 138.3736 0005235  85.7587 274.4257 15.40800490150531"
      },
      "geometry": {
        "type": "Point",
        "coordinates": [
          121.05432312757014,
          66.59853975000685
        ]
      }
    },
    {
      "type": "Feature",
      "properties": {
        "norad_id": 55975,
        "name": "TIANMU-1 05",
        "group": "weather",
        "lat": 66.21107277570131,
        "lon": -23.31353517934996,
        "alt_km": 435.44712838391933,
        "timestamp": "2025-12-03T04:52:29.284250+00:00",
        "meta_object_name": "TIANMU-1 05",
        "meta_object_id": "2023-039C",
        "meta_epoch": "2025-12-02T20:35:34.552320",
        "meta_mean_motion": 15.40431924,
        "meta_eccentricity": 0.0004313,
        "meta_inclination": 97.5079,
        "meta_ra_of_asc_node": 138.9237,
        "meta_arg_of_pericenter": 106.2286,
        "meta_mean_anomaly": 253.9434,
        "meta_ephemeris_type": 0,
        "meta_classification_type": "U",
        "meta_norad_cat_id": 55975,
        "meta_element_set_no": 999,
        "meta_rev_at_epoch": 15052,
        "meta_bstar": 0.00048033,
        "meta_mean_motion_dot": 0.00019382,
        "meta_mean_motion_ddot": 0,
        "tle_line1": "1 55975U 23039C   25336.85803880  .00019382  00000+0  48033-3 0  9990",
        "tle_line2": "2 55975  97.5079 138.9237 0004313 106.2286 253.9434 15.40431924150525"
      },
      "geometry": {
        "type": "Point",
        "coordinates": [
          -23.31353517934996,
          66.21107277570131
        ]
      }
    },
    {
      "type": "Feature",
      "properties": {
        "norad_id": 55976,
        "name": "TIANMU-1 06",
        "group": "weather",
        "lat": 53.194657324490336,
        "lon": 129.58150335421254,
        "alt_km": 436.4177196877172,
        "timestamp": "2025-12-03T04:52:29.284261+00:00",
        "meta_object_name": "TIANMU-1 06",
        "meta_object_id": "2023-039D",
        "meta_epoch": "2025-12-02T19:17:25.519776",
        "meta_mean_motion": 15.4085339,
        "meta_eccentricity": 0.0004654,
        "meta_inclination": 97.5091,
        "meta_ra_of_asc_node": 139.325,
        "meta_arg_of_pericenter": 101.9293,
        "meta_mean_anomaly": 258.2475,
        "meta_ephemeris_type": 0,
        "meta_classification_type": "U",
        "meta_norad_cat_id": 55976,
        "meta_element_set_no": 999,
        "meta_rev_at_epoch": 15053,
        "meta_bstar": 0.00048591,
        "meta_mean_motion_dot": 0.00019885,
        "meta_mean_motion_ddot": 0,
        "tle_line1": "1 55976U 23039D   25336.80376759  .00019885  00000+0  48591-3 0  9993",
        "tle_line2": "2 55976  97.5091 139.3250 0004654 101.9293 258.2475 15.40853390150537"
      },
      "geometry": {
        "type": "Point",
        "coordinates": [
          129.58150335421254,
          53.194657324490336
        ]
      }
    },
    {
      "type": "Feature",
      "properties": {
        "norad_id": 56232,
        "name": "FENGYUN 3G",
        "group": "weather",
        "lat": 1.3146172342721412,
        "lon": -82.26128722611729,
        "alt_km": 410.2086032991592,
        "timestamp": "2025-12-03T04:52:29.284271+00:00",
        "meta_object_name": "FENGYUN 3G",
        "meta_object_id": "2023-055A",
        "meta_epoch": "2025-12-02T19:36:02.232864",
        "meta_mean_motion": 15.52731117,
        "meta_eccentricity": 0.000924,
        "meta_inclination": 49.9947,
        "meta_ra_of_asc_node": 278.6268,
        "meta_arg_of_pericenter": 100.8142,
        "meta_mean_anomaly": 259.3866,
        "meta_ephemeris_type": 0,
        "meta_classification_type": "U",
        "meta_norad_cat_id": 56232,
        "meta_element_set_no": 999,
        "meta_rev_at_epoch": 14948,
        "meta_bstar": 0.00061176,
        "meta_mean_motion_dot": 0.00038328,
        "meta_mean_motion_ddot": 0,
        "tle_line1": "1 56232U 23055A   25336.81669251  .00038328  00000+0  61176-3 0  9997",
        "tle_line2": "2 56232  49.9947 278.6268 0009240 100.8142 259.3866 15.52731117149480"
      },
      "geometry": {
        "type": "Point",
        "coordinates": [
          -82.26128722611729,
          1.3146172342721412
        ]
      }
    },
    {
      "type": "Feature",
      "properties": {
        "norad_id": 57166,
        "name": "METEOR-M2 3",
        "group": "weather",
        "lat": -14.422565761934699,
        "lon": 33.14925479215012,
        "alt_km": 814.2686330550223,
        "timestamp": "2025-12-03T04:52:29.284281+00:00",
        "meta_object_name": "METEOR-M2 3",
        "meta_object_id": "2023-091A",
        "meta_epoch": "2025-12-02T20:30:41.447232",
        "meta_mean_motion": 14.24024105,
        "meta_eccentricity": 0.0004431,
        "meta_inclination": 98.6394,
        "meta_ra_of_asc_node": 30.566,
        "meta_arg_of_pericenter": 35.2592,
        "meta_mean_anomaly": 324.8879,
        "meta_ephemeris_type": 0,
        "meta_classification_type": "U",
        "meta_norad_cat_id": 57166,
        "meta_element_set_no": 999,
        "meta_rev_at_epoch": 12657,
        "meta_bstar": 3.8738e-05,
        "meta_mean_motion_dot": 4.5e-07,
        "meta_mean_motion_ddot": 0,
        "tle_line1": "1 57166U 23091A   25336.85464638  .00000045  00000+0  38738-4 0  9994",
        "tle_line2": "2 57166  98.6394  30.5660 0004431  35.2592 324.8879 14.24024105126579"
      },
      "geometry": {
        "type": "Point",
        "coordinates": [
          33.14925479215012,
          -14.422565761934699
        ]
      }
    },
    {
      "type": "Feature",
      "properties": {
        "norad_id": 57399,
        "name": "TIANMU-1 07",
        "group": "weather",
        "lat": -30.18219313756347,
        "lon": -157.00487217776282,
        "alt_km": 489.2855681968231,
        "timestamp": "2025-12-03T04:52:29.284292+00:00",
        "meta_object_name": "TIANMU-1 07",
        "meta_object_id": "2023-101A",
        "meta_epoch": "2025-12-02T20:05:53.556288",
        "meta_mean_motion": 15.27842576,
        "meta_eccentricity": 0.0005582,
        "meta_inclination": 97.2898,
        "meta_ra_of_asc_node": 26.9072,
        "meta_arg_of_pericenter": 106.6546,
        "meta_mean_anomaly": 253.5307,
        "meta_ephemeris_type": 0,
        "meta_classification_type": "U",
        "meta_norad_cat_id": 57399,
        "meta_element_set_no": 999,
        "meta_rev_at_epoch": 13164,
        "meta_bstar": 0.000371,
        "meta_mean_motion_dot": 0.00010021,
        "meta_mean_motion_ddot": 0,
        "tle_line1": "1 57399U 23101A   25336.83742542  .00010021  00000+0  37100-3 0  9991",
        "tle_line2": "2 57399  97.2898  26.9072 0005582 106.6546 253.5307 15.27842576131649"
      },
      "geometry": {
        "type": "Point",
        "coordinates": [
          -157.00487217776282,
          -30.18219313756347
        ]
      }
    }
  ]
}